start=new Date('2022-10-05T00:00:00.000Z').valueOf();
sats=[{"INCLINATION":"53.0553","PERIAPSIS":"545.939","CLASSIFICATION_TYPE":"U","EPHEMERIS_TYPE":"0","ECCENTRICITY":"0.00017750","REF_FRAME":"TEME","MEAN_MOTION_DOT":"0.00022541","RCS_SIZE":"MEDIUM","OBJECT_NAME":"STARLINK-2214","RA_OF_ASC_NODE":"1.7908","TLE_LINE2":"2 48566  53.0553   1.7908 0001775  50.6598 309.4548 15.06414723 76368","CENTER_NAME":"EARTH","MEAN_ELEMENT_THEORY":"SGP4","APOAPSIS":"548.398","LAUNCH_DATE":"2021-05-15","ARG_OF_PERICENTER":"50.6598","OBJECT_ID":"2021-041P","TLE_LINE1":"1 48566U 21041P   22277.74477835  .00022541  00000-0  15267-2 0  9999","FILE":"3591597","DECAY_DATE":null,"TIME_SYSTEM":"UTC","MEAN_MOTION_DDOT":"0.0000000000000","REV_AT_EPOCH":"7636","SITE":"AFETR","OBJECT_TYPE":"PAYLOAD","PERIOD":"95.591","NORAD_CAT_ID":"48566","COUNTRY_CODE":"US","BSTAR":"0.00152670000000","ELEMENT_SET_NO":"999","MEAN_ANOMALY":"309.4548","SEMIMAJOR_AXIS":"6925.303","MEAN_MOTION":"15.06414723","EPOCH":"2022-10-04T17:52:28.849440","GP_ID":"214190257"},{"EPOCH":"2022-10-04T16:38:11.184864","GP_ID":"214190507","MEAN_MOTION":"15.06419276","SEMIMAJOR_AXIS":"6925.289","MEAN_ANOMALY":"295.1805","PERIOD":"95.591","BSTAR":"0.00043390000000","COUNTRY_CODE":"US","ELEMENT_SET_NO":"999","NORAD_CAT_ID":"48567","SITE":"AFETR","OBJECT_TYPE":"PAYLOAD","TIME_SYSTEM":"UTC","DECAY_DATE":null,"MEAN_MOTION_DDOT":"0.0000000000000","REV_AT_EPOCH":"7635","OBJECT_ID":"2021-041Q","TLE_LINE1":"1 48567U 21041Q   22277.69318501  .00006191  00000-0  43390-3 0  9990","FILE":"3591597","LAUNCH_DATE":"2021-05-15","ARG_OF_PERICENTER":"64.9341","CENTER_NAME":"EARTH","MEAN_ELEMENT_THEORY":"SGP4","APOAPSIS":"548.202","OBJECT_NAME":"STARLINK-2215","RCS_SIZE":"LARGE","MEAN_MOTION_DOT":"0.00006191","RA_OF_ASC_NODE":"2.0586","TLE_LINE2":"2 48567  53.0551   2.0586 0001512  64.9341 295.1805 15.06419276 76350","ECCENTRICITY":"0.00015120","REF_FRAME":"TEME","EPHEMERIS_TYPE":"0","PERIAPSIS":"546.107","INCLINATION":"53.0551","CLASSIFICATION_TYPE":"U"},{"ARG_OF_PERICENTER":"67.5834","LAUNCH_DATE":"2021-05-15","APOAPSIS":"548.195","MEAN_ELEMENT_THEORY":"SGP4","CENTER_NAME":"EARTH","REF_FRAME":"TEME","ECCENTRICITY":"0.00014770","TLE_LINE2":"2 48568  53.0554 351.9977 0001477  67.5834 292.5312 15.06413559 76497","RA_OF_ASC_NODE":"351.9977","RCS_SIZE":"LARGE","MEAN_MOTION_DOT":"0.00003613","OBJECT_NAME":"STARLINK-2217","CLASSIFICATION_TYPE":"U","INCLINATION":"53.0554","PERIAPSIS":"546.149","EPHEMERIS_TYPE":"0","MEAN_MOTION":"15.06413559","GP_ID":"214190758","EPOCH":"2022-10-04T16:55:25.115520","COUNTRY_CODE":"US","BSTAR":"0.00026126000000","NORAD_CAT_ID":"48568","ELEMENT_SET_NO":"999","PERIOD":"95.591","SEMIMAJOR_AXIS":"6925.307","MEAN_ANOMALY":"292.5312","REV_AT_EPOCH":"7649","MEAN_MOTION_DDOT":"0.0000000000000","DECAY_DATE":null,"TIME_SYSTEM":"UTC","OBJECT_TYPE":"PAYLOAD","SITE":"AFETR","FILE":"3591597","TLE_LINE1":"1 48568U 21041R   22277.70515180  .00003613  00000-0  26126-3 0  9999","OBJECT_ID":"2021-041R"},{"SITE":"AFETR","OBJECT_TYPE":"PAYLOAD","DECAY_DATE":null,"TIME_SYSTEM":"UTC","MEAN_MOTION_DDOT":"0.0000000000000","REV_AT_EPOCH":"7647","OBJECT_ID":"2021-041S","TLE_LINE1":"1 48569U 21041S   22277.53192188  .00018891  00000-0  12828-2 0  9997","FILE":"3591197","EPOCH":"2022-10-04T12:45:58.050432","GP_ID":"214157119","MEAN_MOTION":"15.06426101","SEMIMAJOR_AXIS":"6925.269","MEAN_ANOMALY":"295.5368","PERIOD":"95.590","COUNTRY_CODE":"US","NORAD_CAT_ID":"48569","BSTAR":"0.00128280000000","ELEMENT_SET_NO":"999","MEAN_MOTION_DOT":"0.00018891","RCS_SIZE":"LARGE","OBJECT_NAME":"STARLINK-2219","RA_OF_ASC_NODE":"352.7695","TLE_LINE2":"2 48569  53.0540 352.7695 0001337  64.5759 295.5368 15.06426101 76476","ECCENTRICITY":"0.00013370","REF_FRAME":"TEME","EPHEMERIS_TYPE":"0","PERIAPSIS":"546.208","INCLINATION":"53.0540","CLASSIFICATION_TYPE":"U","LAUNCH_DATE":"2021-05-15","ARG_OF_PERICENTER":"64.5759","CENTER_NAME":"EARTH","MEAN_ELEMENT_THEORY":"SGP4","APOAPSIS":"548.059"},{"FILE":"3591197","TLE_LINE1":"1 48570U 21041T   22277.51994707  .00008533  00000-0  59077-3 0  9994","OBJECT_ID":"2021-041T","REV_AT_EPOCH":"7632","MEAN_MOTION_DDOT":"0.0000000000000","TIME_SYSTEM":"UTC","DECAY_DATE":null,"OBJECT_TYPE":"PAYLOAD","SITE":"AFETR","BSTAR":"0.00059077000000","COUNTRY_CODE":"US","NORAD_CAT_ID":"48570","ELEMENT_SET_NO":"999","PERIOD":"95.591","MEAN_ANOMALY":"298.0101","SEMIMAJOR_AXIS":"6925.297","MEAN_MOTION":"15.06416730","EPOCH":"2022-10-04T12:28:43.426848","GP_ID":"214157369","CLASSIFICATION_TYPE":"U","INCLINATION":"53.0554","PERIAPSIS":"546.083","EPHEMERIS_TYPE":"0","REF_FRAME":"TEME","ECCENTRICITY":"0.00015590","TLE_LINE2":"2 48570  53.0554   2.8389 0001559  62.1046 298.0101 15.06416730 76329","RA_OF_ASC_NODE":"2.8389","MEAN_MOTION_DOT":"0.00008533","RCS_SIZE":"LARGE","OBJECT_NAME":"STARLINK-2220","MEAN_ELEMENT_THEORY":"SGP4","APOAPSIS":"548.242","CENTER_NAME":"EARTH","ARG_OF_PERICENTER":"62.1046","LAUNCH_DATE":"2021-05-15"},{"APOAPSIS":"548.285","MEAN_ELEMENT_THEORY":"SGP4","CENTER_NAME":"EARTH","ARG_OF_PERICENTER":"55.7677","LAUNCH_DATE":"2021-05-15","EPHEMERIS_TYPE":"0","PERIAPSIS":"546.097","INCLINATION":"53.0541","CLASSIFICATION_TYPE":"U","TLE_LINE2":"2 48571  53.0541   2.8082 0001580  55.7677 304.3461 15.06407419 76333","RCS_SIZE":"LARGE","MEAN_MOTION_DOT":"0.00001274","OBJECT_NAME":"STARLINK-2221","RA_OF_ASC_NODE":"2.8082","REF_FRAME":"TEME","ECCENTRICITY":"0.00015800","MEAN_ANOMALY":"304.3461","SEMIMAJOR_AXIS":"6925.326","COUNTRY_CODE":"US","ELEMENT_SET_NO":"999","BSTAR":"0.00010439000000","NORAD_CAT_ID":"48571","PERIOD":"95.592","EPOCH":"2022-10-04T12:39:19.934784","GP_ID":"214158621","MEAN_MOTION":"15.06407419","FILE":"3591197","OBJECT_ID":"2021-041U","TLE_LINE1":"1 48571U 21041U   22277.52731406  .00001274  00000-0  10439-3 0  9995","OBJECT_TYPE":"PAYLOAD","SITE":"AFETR","REV_AT_EPOCH":"7633","TIME_SYSTEM":"UTC","DECAY_DATE":null,"MEAN_MOTION_DDOT":"0.0000000000000"},{"MEAN_MOTION_DDOT":"0.0000000000000","TIME_SYSTEM":"UTC","DECAY_DATE":null,"REV_AT_EPOCH":"7633","SITE":"AFETR","OBJECT_TYPE":"PAYLOAD","TLE_LINE1":"1 48572U 21041V   22277.52362568  .00009374  00000-0  64685-3 0  9996","OBJECT_ID":"2021-041V","FILE":"3591197","MEAN_MOTION":"15.06428002","EPOCH":"2022-10-04T12:34:01.258752","GP_ID":"214158356","PERIOD":"95.590","COUNTRY_CODE":"US","BSTAR":"0.00064685000000","NORAD_CAT_ID":"48572","ELEMENT_SET_NO":"999","SEMIMAJOR_AXIS":"6925.263","MEAN_ANOMALY":"295.4662","ECCENTRICITY":"0.00013860","REF_FRAME":"TEME","RA_OF_ASC_NODE":"2.8102","OBJECT_NAME":"STARLINK-2222","RCS_SIZE":"LARGE","MEAN_MOTION_DOT":"0.00009374","TLE_LINE2":"2 48572  53.0553   2.8102 0001386  64.6470 295.4662 15.06428002 76338","CLASSIFICATION_TYPE":"U","PERIAPSIS":"546.168","INCLINATION":"53.0553","EPHEMERIS_TYPE":"0","LAUNCH_DATE":"2021-05-15","ARG_OF_PERICENTER":"64.6470","CENTER_NAME":"EARTH","MEAN_ELEMENT_THEORY":"SGP4","APOAPSIS":"548.088"},{"SEMIMAJOR_AXIS":"6925.318","MEAN_ANOMALY":"307.1206","PERIOD":"95.592","NORAD_CAT_ID":"48573","COUNTRY_CODE":"US","BSTAR":"0.00041989000000","ELEMENT_SET_NO":"999","EPOCH":"2022-10-04T12:03:30.990528","GP_ID":"214157620","MEAN_MOTION":"15.06409821","TLE_LINE1":"1 48573U 21041W   22277.50244202  .00005980  00000-0  41989-3 0  9990","OBJECT_ID":"2021-041W","FILE":"3591197","SITE":"AFETR","OBJECT_TYPE":"PAYLOAD","MEAN_MOTION_DDOT":"0.0000000000000","TIME_SYSTEM":"UTC","DECAY_DATE":null,"REV_AT_EPOCH":"7646","CENTER_NAME":"EARTH","MEAN_ELEMENT_THEORY":"SGP4","APOAPSIS":"548.348","LAUNCH_DATE":"2021-05-15","ARG_OF_PERICENTER":"52.9936","EPHEMERIS_TYPE":"0","CLASSIFICATION_TYPE":"U","PERIAPSIS":"546.019","INCLINATION":"53.0560","RA_OF_ASC_NODE":"352.8986","RCS_SIZE":"LARGE","OBJECT_NAME":"STARLINK-2224","MEAN_MOTION_DOT":"0.00005980","TLE_LINE2":"2 48573  53.0560 352.8986 0001682  52.9936 307.1206 15.06409821 76468","ECCENTRICITY":"0.00016820","REF_FRAME":"TEME"},{"CLASSIFICATION_TYPE":"U","PERIAPSIS":"546.083","INCLINATION":"53.0564","EPHEMERIS_TYPE":"0","ECCENTRICITY":"0.00015990","REF_FRAME":"TEME","RA_OF_ASC_NODE":"323.4301","RCS_SIZE":"LARGE","MEAN_MOTION_DOT":"0.00005249","OBJECT_NAME":"STARLINK-2225","TLE_LINE2":"2 48574  53.0564 323.4301 0001599  59.8675 300.2472 15.06407643 76875","CENTER_NAME":"EARTH","MEAN_ELEMENT_THEORY":"SGP4","APOAPSIS":"548.297","LAUNCH_DATE":"2021-05-15","ARG_OF_PERICENTER":"59.8675","TLE_LINE1":"1 48574U 21041X   22277.40569545  .00005249  00000-0  37097-3 0  9993","OBJECT_ID":"2021-041X","FILE":"3591197","MEAN_MOTION_DDOT":"0.0000000000000","TIME_SYSTEM":"UTC","DECAY_DATE":null,"REV_AT_EPOCH":"7687","SITE":"AFETR","OBJECT_TYPE":"PAYLOAD","PERIOD":"95.592","NORAD_CAT_ID":"48574","COUNTRY_CODE":"US","BSTAR":"0.00037097000000","ELEMENT_SET_NO":"999","SEMIMAJOR_AXIS":"6925.325","MEAN_ANOMALY":"300.2472","MEAN_MOTION":"15.06407643","EPOCH":"2022-10-04T09:44:12.086880","GP_ID":"214157870"},{"ECCENTRICITY":"0.00016260","REF_FRAME":"TEME","RA_OF_ASC_NODE":"313.2812","RCS_SIZE":"LARGE","OBJECT_NAME":"STARLINK-2227","MEAN_MOTION_DOT":"0.00000085","TLE_LINE2":"2 48575  53.0534 313.2812 0001626  56.8540 303.2604 15.06407767 77032","CLASSIFICATION_TYPE":"U","PERIAPSIS":"546.064","INCLINATION":"53.0534","EPHEMERIS_TYPE":"0","LAUNCH_DATE":"2021-05-15","ARG_OF_PERICENTER":"56.8540","CENTER_NAME":"EARTH","MEAN_ELEMENT_THEORY":"SGP4","APOAPSIS":"548.316","MEAN_MOTION_DDOT":"0.0000000000000","TIME_SYSTEM":"UTC","DECAY_DATE":null,"REV_AT_EPOCH":"7703","SITE":"AFETR","OBJECT_TYPE":"PAYLOAD","TLE_LINE1":"1 48575U 21041Y   22277.48773654  .00000085  00000-0  24609-4 0  9999","OBJECT_ID":"2021-041Y","FILE":"3591197","MEAN_MOTION":"15.06407767","GP_ID":"214158121","EPOCH":"2022-10-04T11:42:20.437056","PERIOD":"95.592","COUNTRY_CODE":"US","NORAD_CAT_ID":"48575","BSTAR":"0.00002460900000","ELEMENT_SET_NO":"999","SEMIMAJOR_AXIS":"6925.325","MEAN_ANOMALY":"303.2604"}];
